     2.100          NAVIGATION                              RINEX VERSION / TYPE
fic2rin                                 11/06/2009 01:42:41 PGM / RUN BY / DATE
                                                            END OF HEADER
10 09 11  5 17 59 44.0 -.275634229183D-04 -.795807864051D-12  .000000000000D+00
     .380000000000D+02  .135843750000D+03  .441482675240D-08 -.231481590499D+01
     .698864459991D-05  .869981653523D-02  .772252678871D-05  .515339929581D+04
     .410384000000D+06  .540167093277D-07 -.221002984496D+01 -.931322574615D-07
     .956167873578D+00  .230406250000D+03  .620154001595D+00 -.788032824730D-08
     .503592405216D-10  .100000000000D+01  .155600000000D+04  .000000000000D+00
     .240000000000D+01  .000000000000D+00 -.279396772385D-08  .380000000000D+02
     .403206000000D+06  .400000000000D+01
 1 09 11  5 18  0  0.0 -.630030408502D-04 -.193267624127D-11  .000000000000D+00
     .210000000000D+02 -.495625000000D+02  .563666336108D-08 -.947045059382D+00
    -.244006514549D-05  .382373214234D-02  .109430402517D-04  .515368820381D+04
     .410400000000D+06  .298023223877D-07  .902009828513D+00  .100582838058D-06
     .962405649475D+00  .171093750000D+03  .977114731928D+00 -.780389649218D-08
     .647169814363D-09  .100000000000D+01  .155600000000D+04  .000000000000D+00
     .240000000000D+01  .630000000000D+02 -.190921127796D-07  .210000000000D+02
     .403206000000D+06  .400000000000D+01
 2 09 11  5 18  0  0.0  .188387464732D-03  .420641299570D-11  .000000000000D+00
     .290000000000D+02  .840625000000D+01  .495092051143D-08  .281013866361D+01
     .478699803352D-06  .915617868304D-02  .974349677563D-05  .515373057175D+04
     .410400000000D+06 -.150874257088D-06  .298842172355D+01  .130385160446D-06
     .940983911826D+00  .181281250000D+03  .291188009268D+01 -.792925885689D-08
    -.607525305868D-09  .100000000000D+01  .155600000000D+04  .000000000000D+00
     .240000000000D+01  .000000000000D+00 -.172294676304D-07  .290000000000D+02
     .403206000000D+06  .400000000000D+01
 3 09 11  5 18  0  0.0  .470493454486D-03  .522959453519D-11  .000000000000D+00
     .850000000000D+02  .225000000000D+01  .568809407481D-08  .256017829976D+01
     .111758708954D-07  .126466238871D-01  .592134892941D-05  .515365773773D+04
     .410400000000D+06  .130385160446D-07  .183867155326D+01 -.227242708206D-06
     .926201225576D+00  .247031250000D+03  .961811410689D+00 -.825962976102D-08
     .318941856637D-09  .100000000000D+01  .155600000000D+04  .000000000000D+00
     .240000000000D+01  .000000000000D+00 -.465661287308D-08  .850000000000D+02
     .403206000000D+06  .400000000000D+01
 4 09 11  5 18  0  0.0 -.344926025718D-03 -.180762071977D-10  .000000000000D+00
     .112000000000D+03  .825000000000D+01  .504020994498D-08 -.615043671792D+00
     .465661287308D-06  .899884570390D-02  .923499464989D-05  .515356624603D+04
     .410400000000D+06  .121071934700D-06  .300657356134D+01  .175088644028D-06
     .940174259815D+00  .190093750000D+03  .551347507642D+00 -.818141221723D-08
    -.623954561641D-09  .100000000000D+01  .155600000000D+04  .000000000000D+00
     .240000000000D+01  .000000000000D+00 -.605359673500D-08  .112000000000D+03
     .403206000000D+06  .400000000000D+01
 5 09 11  5 18  0  0.0 -.502271577716D-04  .738964445191D-11  .000000000000D+00
     .940000000000D+02  .134312500000D+03  .432339437244D-08 -.207588440739D+01
     .697188079357D-05  .160844810307D-02  .823102891445D-05  .515359359360D+04
     .410400000000D+06 -.372529029846D-08 -.223692998114D+01  .558793544769D-08
     .961116349051D+00  .223375000000D+03  .234483569788D+00 -.790211486909D-08
    -.275011455331D-10  .100000000000D+01  .155600000000D+04  .000000000000D+00
     .240000000000D+01  .000000000000D+00 -.931322574615D-08  .940000000000D+02
     .403206000000D+06  .400000000000D+01
 7 09 11  5 18  0  0.0  .826781615615D-05 -.682121026330D-12  .000000000000D+00
     .270000000000D+02 -.120125000000D+03  .407374111624D-08  .108760692002D+01
    -.623054802418D-05  .323907192796D-02  .618956983089D-05  .515365093994D+04
     .410400000000D+06  .167638063431D-07 -.137250896662D+00  .670552253723D-07
     .969716328029D+00  .264000000000D+03  .301845613539D+01 -.795283126734D-08
    -.118576367753D-09  .100000000000D+01  .155600000000D+04  .000000000000D+00
     .240000000000D+01  .000000000000D+00 -.107102096081D-07  .270000000000D+02
     .403206000000D+06  .400000000000D+01
 8 09 11  5 18  0  0.0  .563277862966D-04  .916315912036D-10  .000000000000D+00
     .510000000000D+02 -.120968750000D+03  .361907932061D-08  .464698765940D+00
    -.635720789433D-05  .110068717040D-01  .677257776260D-05  .515361662865D+04
     .410400000000D+06  .199303030968D-06 -.735763003140D-01  .223517417908D-07
     .991000824945D+00  .263468750000D+03  .305386476842D+01 -.782068290569D-08
    -.867893294096D-10  .100000000000D+01  .155600000000D+04  .000000000000D+00
     .240000000000D+01  .000000000000D+00 -.372529029846D-08  .510000000000D+02
     .403206000000D+06  .400000000000D+01
 9 09 11  5 18  0  0.0  .868574716151D-04  .204636307899D-11  .000000000000D+00
     .310000000000D+02 -.133718750000D+03  .401909598291D-08  .250051938135D+00
    -.712834298611D-05  .206096338807D-01  .645779073238D-05  .515362951851D+04
     .410400000000D+06 -.320374965668D-06 -.170081086846D+00 -.596046447754D-07
     .978559364994D+00  .268562500000D+03  .151825781836D+01 -.830034574272D-08
    -.243938732456D-09  .100000000000D+01  .155600000000D+04  .000000000000D+00
     .240000000000D+01  .000000000000D+00 -.558793544769D-08  .310000000000D+02
     .403206000000D+06  .400000000000D+01
11 09 11  5 18  0  0.0 -.277045182884D-04 -.181898940355D-11  .000000000000D+00
     .730000000000D+02 -.165000000000D+02  .658027409483D-08  .976611406185D+00
    -.625848770142D-06  .101596552413D-01  .775605440140D-05  .515370128250D+04
     .410400000000D+06 -.521540641785D-07  .278023903920D+01  .113621354103D-06
     .889157307599D+00  .191968750000D+03  .752684305923D+00 -.903573351743D-08
    -.654312969047D-09  .100000000000D+01  .155600000000D+04  .000000000000D+00
     .240000000000D+01  .000000000000D+00 -.116415321827D-07  .730000000000D+02
     .403206000000D+06  .400000000000D+01
12 09 11  5 18  0  0.0 -.194252934307D-03  .534328137292D-11  .000000000000D+00
     .740000000000D+02 -.474062500000D+02  .424767693279D-08  .120268571031D+01
    -.241585075855D-05  .306885759346D-02  .111069530249D-04  .515353776169D+04
     .410400000000D+06  .745058059692D-07  .915159283760D+00  .484287738800D-07
     .968494703658D+00  .173187500000D+03 -.572622257135D+00 -.768031991615D-08
     .663956227871D-09  .100000000000D+01  .155600000000D+04  .000000000000D+00
     .240000000000D+01  .000000000000D+00 -.116415321827D-07  .740000000000D+02
     .403206000000D+06  .400000000000D+01
13 09 11  5 18  0  0.0  .306088943034D-03  .227373675443D-12  .000000000000D+00
     .107000000000D+03  .130625000000D+02  .384730311276D-08 -.283030641714D+01
     .804662704468D-06  .392751500476D-02  .103749334812D-05  .515363247871D+04
     .410400000000D+06  .372529029846D-07 -.112304421747D+01  .223517417908D-07
     .993929778582D+00  .377781250000D+03  .165996140024D+01 -.798676125209D-08
    -.289297764699D-10  .100000000000D+01  .155600000000D+04  .000000000000D+00
     .240000000000D+01  .000000000000D+00 -.111758708954D-07  .107000000000D+03
     .403206000000D+06  .400000000000D+01
14 09 11  5 18  0  0.0 -.283117406070D-04  .488853402203D-11  .000000000000D+00
     .760000000000D+02  .285625000000D+02  .399909514979D-08 -.289684800816D+01
     .157579779625D-05  .508467073087D-02  .316649675369D-06  .515366916656D+04
     .410400000000D+06 -.167638063431D-07 -.114357557636D+01 -.633299350739D-07
     .987319793901D+00  .386343750000D+03 -.212392255703D+01 -.812748139937D-08
     .639312344211D-10  .100000000000D+01  .155600000000D+04  .000000000000D+00
     .240000000000D+01  .000000000000D+00 -.884756445885D-08  .760000000000D+02
     .403206000000D+06  .400000000000D+01
15 09 11  5 18  0  0.0 -.320327933878D-03  .227373675443D-12  .000000000000D+00
     .470000000000D+02  .374062500000D+02  .480591447134D-08 -.266753873573D+01
     .201351940632D-05  .194806279615D-02 -.316649675369D-06  .515368333244D+04
     .410400000000D+06  .130385160446D-07 -.120120425413D+01 -.372529029846D-07
     .955142353376D+00  .384156250000D+03 -.496547636528D+00 -.857928593312D-08
     .557166065346D-10  .100000000000D+01  .155600000000D+04  .000000000000D+00
     .240000000000D+01  .000000000000D+00 -.977888703346D-08  .470000000000D+02
     .403206000000D+06  .400000000000D+01
16 09 11  5 18  0  0.0 -.523962080479D-05 -.409272615798D-11  .000000000000D+00
     .430000000000D+02 -.420625000000D+02  .419088885306D-08 -.123244652135D+01
    -.244751572609D-05  .533095467836D-02  .101272016764D-04  .515365087318D+04
     .410400000000D+06 -.931322574615D-08  .932333931771D+00 -.633299350739D-07
     .969828119840D+00  .189343750000D+03 -.266021713649D+00 -.770532095755D-08
     .666813489744D-09  .100000000000D+01  .155600000000D+04  .000000000000D+00
     .240000000000D+01  .000000000000D+00 -.977888703346D-08  .430000000000D+02
     .403206000000D+06  .400000000000D+01
17 09 11  5 18  0  0.0  .995532609522D-04  .352429196937D-11  .000000000000D+00
     .350000000000D+02  .500000000000D+00  .506485382863D-08 -.238739006838D+01
     .391155481339D-07  .476066628471D-02  .561960041523D-05  .515373924255D+04
     .410400000000D+06  .577419996262D-07  .197542084018D+01 -.130385160446D-06
     .959499842128D+00  .270500000000D+03 -.264877197203D+01 -.812426697976D-08
     .158935191717D-09  .100000000000D+01  .155600000000D+04  .000000000000D+00
     .240000000000D+01  .000000000000D+00 -.102445483208D-07  .350000000000D+02
     .403206000000D+06  .400000000000D+01
